[{"norad_id":"50499","company":"ONEWEB","tle_line2":"2 50499  87.9048  73.2152 0001759  86.7918 273.3415 13.18685641156826","launch_date":"2021-12-27","type":"LEO","tle_line1":"1 50499U 21132AG  25041.59519247  .00000147  00000+0  33952-3 0  9996","satellite_name":"ONEWEB-0427"},{"norad_id":"50500","company":"ONEWEB","tle_line2":"2 50500  87.9053  73.2383 0002012  99.0615 261.0745 13.18686141158081","launch_date":"2021-12-27","type":"LEO","tle_line1":"1 50500U 21132AH  25041.58255051  .00000014  00000+0  37847-5 0  9990","satellite_name":"ONEWEB-0429"},{"norad_id":"50501","company":"ONEWEB","tle_line2":"2 50501  87.9048  73.1916 0002243  92.0811 268.0578 13.18686290156864","launch_date":"2021-12-27","type":"LEO","tle_line1":"1 50501U 21132AJ  25041.79911282  .00000088  00000+0  18930-3 0  9990","satellite_name":"ONEWEB-0430"},{"norad_id":"50502","company":"ONEWEB","tle_line2":"2 50502  87.9048  73.1148 0002144  65.8217 294.3139 13.18686847158168","launch_date":"2021-12-27","type":"LEO","tle_line1":"1 50502U 21132AK  25042.13423455  .00000068  00000+0  13866-3 0  9991","satellite_name":"ONEWEB-0432"},{"norad_id":"50503","company":"ONEWEB","tle_line2":"2 50503  87.9051  73.1131 0001821 107.9946 252.1385 13.18687708158143","launch_date":"2021-12-27","type":"LEO","tle_line1":"1 50503U 21132AL  25042.12157616  .00000066  00000+0  13521-3 0  9990","satellite_name":"ONEWEB-0440"},{"norad_id":"50504","company":"ONEWEB","tle_line2":"2 50504  87.9052  73.1430 0002263  99.0945 261.0443 13.18686027158178","launch_date":"2021-12-27","type":"LEO","tle_line1":"1 50504U 21132AM  25042.11540083  .00000073  00000+0  15255-3 0  9998","satellite_name":"ONEWEB-0450"},{"norad_id":"51622","company":"ONEWEB","tle_line2":"2 51622  87.9055 103.7690 0000755  57.3216 302.7988 13.17649286148972","launch_date":"2022-02-10","type":"LEO","tle_line1":"1 51622U 22012A   25041.68244764 -.00000017  00000+0 -75880-4 0  9997","satellite_name":"ONEWEB-0410"},{"norad_id":"51623","company":"ONEWEB","tle_line2":"2 51623  87.8905 134.1156 0002335  96.7125 263.4268 13.10374110146261","launch_date":"2022-02-10","type":"LEO","tle_line1":"1 51623U 22012B   25042.18699106 -.00000197  00000+0 -60027-3 0  9993","satellite_name":"ONEWEB-0411"}]